[
  {
    "name": "六本木",
    "name_en": "Roppongi",
    "lat": 35.6628,
    "lng": 139.731
  },
  {
    "name": "麻布十番",
    "name_en": "Azabu-juban",
    "lat": 35.6546,
    "lng": 139.7351
  },
  {
    "name": "青山",
    "name_en": "Aoyama",
    "lat": 35.6646,
    "lng": 139.722
  },
  {
    "name": "表參道",
    "name_en": "Omotesando",
    "lat": 35.6655,
    "lng": 139.7128
  },
  {
    "name": "原宿",
    "name_en": "Harajuku",
    "lat": 35.6702,
    "lng": 139.702
  },
  {
    "name": "代官山",
    "name_en": "Daikanyamacho",
    "lat": 35.6492,
    "lng": 139.7036
  },
  {
    "name": "惠比壽",
    "name_en": "Ebisu",
    "lat": 35.6467,
    "lng": 139.71
  },
  {
    "name": "中目黑",
    "name_en": "Naka-meguro",
    "lat": 35.6432,
    "lng": 139.6983
  },
  {
    "name": "三軒茶屋",
    "name_en": "Sangenjaya",
    "lat": 35.6435,
    "lng": 139.6686
  },
  {
    "name": "用賀",
    "name_en": "Yoga",
    "lat": 35.6255,
    "lng": 139.6301
  },
  {
    "name": "二子玉川",
    "name_en": "Futako-Tamagawa",
    "lat": 35.6101,
    "lng": 139.6271
  },
  {
    "lat": 35.658754,
    "lng": 139.701113,
    "name": "渋谷",
    "name_en": "Shibuya"
  },
  {
    "lat": 35.671543,
    "lng": 139.764289,
    "name": "銀座",
    "name_en": "Ginza"
  },
  {
    "lat": 35.675029,
    "lng": 139.763301,
    "name": "有楽町",
    "name_en": "Yurakucho"
  },
  {
    "lat": 35.666313,
    "lng": 139.758559,
    "name": "新橋",
    "name_en": "Shinbashi"
  },
  {
    "lat": 35.664483,
    "lng": 139.770946,
    "name": "築地",
    "name_en": "Tsukiji"
  },
  {
    "lat": 35.664021,
    "lng": 139.783645,
    "name": "月島",
    "name_en": "Tsukishima"
  },
  {
    "lat": 35.672144,
    "lng": 139.736449,
    "name": "赤坂",
    "name_en": "Akasaka"
  }
]